{
  "type": "FeatureCollection",
  "features": [
    {
      "type": "Feature",
      "geometry": {
        "type": "Point",
        "coordinates": [23.04973, 37.98541]
      },
      "properties": {
        "timestamp": "2017-08-01 00:00:00",
        "timestamp_": 1501545600,
        "lon": 23.04973,
        "lat": 37.98541,
        "TMP": 299.79156,
        "TMIN": 299.17084,
        "TMAX": 299.77084,
        "PRMSL": 101655.71,
        "RH": 72.119156,
        "GUST": 5.2540326,
        "DPT": 294.34576,
        "WSPD": 4.063478305448736,
        "WDIRMAT": 102.89263145663146,
        "WDIRMET": 167.10736854336852,
        "APCP": 0.875,
        "UGRD": -0.9066626,
        "VGRD": 3.961037600000001
      }
    },
    {
      "type": "Feature",
      "geometry": {
        "type": "Point",
        "coordinates": [23.04973, 37.86353]
      },
      "properties": {
        "timestamp": "2017-08-01 00:00:00",
        "timestamp_": 1501545600,
        "lon": 23.04973,
        "lat": 37.86353,
        "TMP": 299.79156,
        "TMIN": 299.17084,
        "TMAX": 299.77084,
        "PRMSL": 101655.71,
        "RH": 72.119156,
        "GUST": 5.2540326,
        "DPT": 294.34576,
        "WSPD": 4.063478305448736,
        "WDIRMAT": 102.89263145663146,
        "WDIRMET": 167.10736854336852,
        "APCP": 0.875,
        "UGRD": -0.9066626,
        "VGRD": 3.961037600000001
      }
    }
  ]
}
